STARLINK-34006          
1 63869U 25094F   26164.61412217  .00002547  00000+0  22113-3 0  9994
2 63869  70.0017 352.5226 0002339 265.7893  94.2999 14.98334945 61572
STARLINK-33986          
1 63870U 25094G   26164.62246784  .00001721  00000+0  15195-3 0  9996
2 63870  70.0015 352.5477 0002864 266.2228  93.8603 14.98336400 61576
STARLINK-34013          
1 63871U 25094H   26164.60978139  .00001603  00000+0  14209-3 0  9995
2 63871  70.0011 352.5128 0002989 266.2904  93.7913 14.98335809 61570
STARLINK-34059          
1 63872U 25094J   26164.65151289  .00012512  00000+0  10535-2 0  9998
2 63872  70.0020 352.6583 0002612 232.8944 127.1976 14.98366646 61577
STARLINK-33987          
1 63873U 25094K   26164.61813107  .00003467  00000+0  29813-3 0  9998
2 63873  70.0012 352.5380 0002814 268.5932  91.4905 14.98337096 61572
STARLINK-34052          
1 63874U 25094L   26164.64735012  .00001299  00000+0  11661-3 0  9993
2 63874  70.0015 352.6389 0002709 260.6650  99.4203 14.98331939 61578
STARLINK-34023          
1 63875U 25094M   26164.61396326  .00004806  00000+0  41021-3 0  9992
2 63875  70.0013 352.5226 0002964 267.8638  92.2182 14.98342339 61577
STARLINK-33778          
1 63877U 25094P   26164.63499062 -.00000547  00000+0 -38013-4 0  9995
2 63877  70.0023 352.5907 0002874 265.7656  94.3175 14.98335478 61574
STARLINK-33901          
1 63878U 25094Q   26164.65168259  .00007997  00000+0  67687-3 0  9991
2 63878  70.0014 352.6467 0003201 271.0028  89.0764 14.98352593 61577
STARLINK-33812          
1 63879U 25094R   26164.62647757  .00001097  00000+0  99690-4 0  9999
2 63879  70.0015 352.5601 0002485 270.7648  89.3226 14.98333499 61575
STARLINK-33779          
1 63880U 25094S   26164.64317583  .00001898  00000+0  16681-3 0  9991
2 63880  70.0019 352.6255 0002786 266.4000  93.6841 14.98336687 61578
STARLINK-33905          
1 63881U 25094T   26164.60145615  .00004976  00000+0  42444-3 0  9999
2 63881  70.0014 352.4797 0002839 263.1322  96.9515 14.98337716 61571
STARLINK-34003          
1 63882U 25094U   26164.58335648  .02013518  00000+0  36509-1 0  9991
2 63882  70.0024 306.7960 0003160 272.1345  22.9547 15.46100088  5947
STARLINK-33968          
1 63883U 25094V   26164.58910492  .00003184  00000+0  27449-3 0  9999
2 63883  70.0016 352.8332 0002962 265.5819  94.5002 14.98334411 61561
STARLINK-33943          
1 63884U 25094W   26164.59726023  .00002678  00000+0  23211-3 0  9996
2 63884  70.0016 352.4636 0003096 267.0830  92.9974 14.98334903 61571
STARLINK-33858          
1 63885U 25094X   26164.62230377  .00003344  00000+0  28785-3 0  9995
2 63885  70.0013 352.5490 0002782 269.1327  90.9513 14.98338507 61574
STARLINK-33885          
1 63886U 25094Y   26164.60560806  .00002571  00000+0  22319-3 0  9995
2 63886  70.0013 352.4904 0002735 269.0202  91.0644 14.98335722 61576
STARLINK-33904          
1 63887U 25094Z   26164.60160029  .00003129  00000+0  26986-3 0  9993
2 63887  70.0016 352.4744 0002136 268.8029  91.2885 14.98335984 61570
STARLINK-33981          
1 63888U 25094AA  26164.63916728  .00001782  00000+0  15711-3 0  9999
2 63888  70.0014 352.6061 0002326 272.1795  87.9098 14.98333723 61579
STARLINK-33738          
1 63889U 25094AB  26164.62664148  .00002638  00000+0  22879-3 0  9999
2 63889  70.0015 352.5380 0002686 269.4218  90.6634 14.98336650 61795
STARLINK-34116          
1 63890U 25095A   26163.81212039  .00018584  00000+0  68256-3 0  9996
2 63890  43.0037 359.1871 0001649 270.2326  89.8337 15.27608306 62331
STARLINK-34123          
1 63891U 25095B   26163.23778753  .00029190  00000+0  10653-2 0  9995
2 63891  43.0099   2.6237 0000418 139.5102 220.5781 15.27605647 62240
STARLINK-33972          
1 63893U 25095D   26164.39289177  .00017717  00000+0  65169-3 0  9997
2 63893  43.0016 355.8026 0000790 264.3388  95.7373 15.27584955 62423
STARLINK-33973          
1 63894U 25095E   26164.22613469  .00027664  00000+0  10104-2 0  9995
2 63894  42.9979 356.2679 0002527 277.7584  82.2981 15.27600888 62403
STARLINK-34119          
1 63895U 25095F   26163.81853776  .00023606  00000+0  86334-3 0  9998
2 63895  42.9995 359.2330 0000501 302.4791  57.6012 15.27628181 62334
STARLINK-34143          
1 63896U 25095G   26164.25055291  .00026109  00000+0  95455-3 0  9999
2 63896  43.0052 356.4518 0001316 268.4243  91.6458 15.27593960 62402
STARLINK-33957          
1 63897U 25095H   26163.82240162  .00019893  00000+0  72978-3 0  9992
2 63897  42.9925 359.2583 0000468 193.0917 166.9922 15.27611209 62321
STARLINK-34120          
1 63898U 25095J   26164.22228441  .00024947  00000+0  91298-3 0  9996
2 63898  42.9979 356.2365 0000828 312.4210  47.6572 15.27581100 62400
STARLINK-34134          
1 63899U 25095K   26163.80827341  .00022810  00000+0  83497-3 0  9993
2 63899  43.0025 359.1539 0001077 266.6195  93.4533 15.27614525 62335
STARLINK-34118          
1 63900U 25095L   26163.94546247  .00019372  00000+0  71084-3 0  9992
2 63900  43.0000 358.4632 0001534 271.8584  88.2092 15.27617516 62352
