OBJECT_NAME,OBJECT_ID,EPOCH,MEAN_MOTION,ECCENTRICITY,INCLINATION,RA_OF_ASC_NODE,ARG_OF_PERICENTER,MEAN_ANOMALY,EPHEMERIS_TYPE,CLASSIFICATION_TYPE,NORAD_CAT_ID,ELEMENT_SET_NO,REV_AT_EPOCH,BSTAR,MEAN_MOTION_DOT,MEAN_MOTION_DDOT
STARLINK-34006,2025-094F,2026-06-13T14:44:20.155488,14.98334945,.00023391,70.0017,352.5226,265.7893,94.2999,0,U,63869,999,6157,.22112542E-3,.2547E-4,0
STARLINK-33986,2025-094G,2026-06-13T14:56:21.221376,14.98336400,.00028644,70.0015,352.5477,266.2228,93.8603,0,U,63870,999,6157,.15195464E-3,.1721E-4,0
STARLINK-34013,2025-094H,2026-06-13T14:38:05.112096,14.98335809,.00029896,70.0011,352.5128,266.2904,93.7913,0,U,63871,999,6157,.14209319E-3,.1603E-4,0
STARLINK-34059,2025-094J,2026-06-13T15:38:10.713696,14.98366646,.00026121,70.0020,352.6583,232.8944,127.1976,0,U,63872,999,6157,.10535317E-2,.12512E-3,0
STARLINK-33987,2025-094K,2026-06-13T14:50:06.524448,14.98337096,.00028141,70.0012,352.5380,268.5932,91.4905,0,U,63873,999,6157,.29813112E-3,.3467E-4,0
STARLINK-34052,2025-094L,2026-06-13T15:32:11.050368,14.98331939,.00027096,70.0015,352.6389,260.6650,99.4203,0,U,63874,999,6157,.11660718E-3,.1299E-4,0
STARLINK-34023,2025-094M,2026-06-13T14:44:06.425664,14.98342339,.00029645,70.0013,352.5226,267.8638,92.2182,0,U,63875,999,6157,.41021125E-3,.4806E-4,0
STARLINK-33778,2025-094P,2026-06-13T15:14:23.189568,14.98335478,.00028743,70.0023,352.5907,265.7656,94.3175,0,U,63877,999,6157,-.38013254E-4,-.547E-5,0
STARLINK-33901,2025-094Q,2026-06-13T15:38:25.375776,14.98352593,.00032013,70.0014,352.6467,271.0028,89.0764,0,U,63878,999,6157,.67687435E-3,.7997E-4,0
STARLINK-33812,2025-094R,2026-06-13T15:02:07.662048,14.98333499,.00024855,70.0015,352.5601,270.7648,89.3226,0,U,63879,999,6157,.99689555E-4,.1097E-4,0
STARLINK-33779,2025-094S,2026-06-13T15:26:10.391712,14.98336687,.00027868,70.0019,352.6255,266.4000,93.6841,0,U,63880,999,6157,.16680666E-3,.1898E-4,0
STARLINK-33905,2025-094T,2026-06-13T14:26:05.811360,14.98337716,.00028391,70.0014,352.4797,263.1322,96.9515,0,U,63881,999,6157,.42443515E-3,.4976E-4,0
STARLINK-34003,2025-094U,2026-06-13T14:00:01.999872,15.46100088,.000316,70.0024,306.7960,272.1345,22.9547,0,U,63882,999,594,.36508899E-1,.2013518E-1,0
STARLINK-33968,2025-094V,2026-06-13T14:08:18.665088,14.98334411,.00029623,70.0016,352.8332,265.5819,94.5002,0,U,63883,999,6156,.27448898E-3,.3184E-4,0
STARLINK-33943,2025-094W,2026-06-13T14:20:03.283872,14.98334903,.00030966,70.0016,352.4636,267.0830,92.9974,0,U,63884,999,6157,.2321072E-3,.2678E-4,0
STARLINK-33858,2025-094X,2026-06-13T14:56:07.045728,14.98338507,.00027827,70.0013,352.5490,269.1327,90.9513,0,U,63885,999,6157,.28784626E-3,.3344E-4,0
STARLINK-33885,2025-094Y,2026-06-13T14:32:04.536384,14.98335722,.00027357,70.0013,352.4904,269.0202,91.0644,0,U,63886,999,6157,.2231891E-3,.2571E-4,0
STARLINK-33904,2025-094Z,2026-06-13T14:26:18.265056,14.98335984,.00021365,70.0016,352.4744,268.8029,91.2885,0,U,63887,999,6157,.2698575E-3,.3129E-4,0
STARLINK-33981,2025-094AA,2026-06-13T15:20:24.052992,14.98333723,.0002326,70.0014,352.6061,272.1795,87.9098,0,U,63888,999,6157,.15711111E-3,.1782E-4,0
STARLINK-33738,2025-094AB,2026-06-13T15:02:21.823872,14.98336650,.00026868,70.0015,352.5380,269.4218,90.6634,0,U,63889,999,6179,.22878986E-3,.2638E-4,0
STARLINK-34116,2025-095A,2026-06-12T19:29:27.201696,15.27608306,.00016491,43.0037,359.1871,270.2326,89.8337,0,U,63890,999,6233,.68256069E-3,.18584E-3,0
STARLINK-34123,2025-095B,2026-06-12T05:42:24.842592,15.27605647,.00004184,43.0099,2.6237,139.5102,220.5781,0,U,63891,999,6224,.10652603E-2,.2919E-3,0
STARLINK-33972,2025-095D,2026-06-13T09:25:45.848928,15.27584955,.00007902,43.0016,355.8026,264.3388,95.7373,0,U,63893,999,6242,.65169275E-3,.17717E-3,0
STARLINK-33973,2025-095E,2026-06-13T05:25:38.037216,15.27600888,.0002527,42.9979,356.2679,277.7584,82.2981,0,U,63894,999,6240,.10104E-2,.27664E-3,0
STARLINK-34119,2025-095F,2026-06-12T19:38:41.662464,15.27628181,.00005011,42.9995,359.2330,302.4791,57.6012,0,U,63895,999,6233,.86333514E-3,.23606E-3,0
STARLINK-34143,2025-095G,2026-06-13T06:00:47.771424,15.27593960,.0001316,43.0052,356.4518,268.4243,91.6458,0,U,63896,999,6240,.95455E-3,.26109E-3,0
STARLINK-33957,2025-095H,2026-06-12T19:44:15.499968,15.27611209,.00004685,42.9925,359.2583,193.0917,166.9922,0,U,63897,999,6232,.72978135E-3,.19893E-3,0
STARLINK-34120,2025-095J,2026-06-13T05:20:05.373024,15.27581100,.0000828,42.9979,356.2365,312.4210,47.6572,0,U,63898,999,6240,.91298E-3,.24947E-3,0
STARLINK-34134,2025-095K,2026-06-12T19:23:54.822624,15.27614525,.00010775,43.0025,359.1539,266.6195,93.4533,0,U,63899,999,6233,.83497419E-3,.2281E-3,0
STARLINK-34118,2025-095L,2026-06-12T22:41:27.957408,15.27617516,.0001534,43.0000,358.4632,271.8584,88.2092,0,U,63900,999,6235,.71083565E-3,.19372E-3,0
